GLOBALSTAR M001         
1 25162U 98008A   24327.87346231 -.00000036  00000+0  46818-3 0  9992
2 25162  52.0020 213.7139 0001564 134.5367 323.6295 12.38201437218156
GLOBALSTAR M004         
1 25163U 98008B   24328.06396091 -.00000035  00000+0  38180-3 0  9996
2 25163  52.0011 322.9776 0002826 188.6173 240.3036 12.63379374235739
GLOBALSTAR M002         
1 25164U 98008C   24327.54122768 -.00000068  00000+0  16890-3 0  9997
2 25164  52.0041  38.3314 0001901 131.1349 228.9636 11.61506024160051
GLOBALSTAR M003         
1 25165U 98008D   24327.56805583  .00000025  00000+0  12178-2 0  9999
2 25165  51.9994  20.7593 0007991 234.9609 293.1579 12.12054785208161
GLOBALSTAR M014         
1 25306U 98023A   24327.45780498 -.00000049  00000+0  53098-3 0  9992
2 25306  51.9854 326.1146 0001059 347.1920 181.4553 11.65474996167063
GLOBALSTAR M006         
1 25307U 98023B   24327.61452772 -.00000074  00000+0  38693-4 0  9995
2 25307  51.9971  10.4698 0003777  95.3166  26.0217 11.58169890192898
GLOBALSTAR M015         
1 25308U 98023C   24327.69144970 -.00000061  00000+0  29581-3 0  9993
2 25308  51.9806  99.2827 0013398  71.9514  67.9323 11.48854893170343
GLOBALSTAR M008         
1 25309U 98023D   24327.81509794 -.00000057  00000+0  30398-3 0  9990
2 25309  51.9976  76.3723 0003336 105.5080  72.6449 12.36056314212323
